OBJECT_NAME,OBJECT_ID,EPOCH,MEAN_MOTION,ECCENTRICITY,INCLINATION,RA_OF_ASC_NODE,ARG_OF_PERICENTER,MEAN_ANOMALY,EPHEMERIS_TYPE,CLASSIFICATION_TYPE,NORAD_CAT_ID,ELEMENT_SET_NO,REV_AT_EPOCH,BSTAR,MEAN_MOTION_DOT,MEAN_MOTION_DDOT
ONEWEB-0336,2021-083S,2026-06-16T11:55:30.963360,13.13470196,.00022402,87.8951,320.3651,93.1897,266.9489,0,U,49202,999,23082,.10217459E-2,.386E-5,0
ONEWEB-0337,2021-083T,2026-06-16T12:09:56.922048,13.13469865,.00020341,87.8951,320.3691,98.4824,261.6536,0,U,49203,999,23082,.41097125E-3,.163E-5,0
ONEWEB-0338,2021-083U,2026-06-16T14:04:39.291168,13.20773939,.00016798,87.9186,274.5684,103.7651,256.3670,0,U,49204,999,23673,.36335293E-4,.28E-6,0
ONEWEB-0339,2021-083V,2026-06-16T10:32:37.692096,13.13470270,.00016359,87.8952,320.3749,104.0861,256.0451,0,U,49205,999,23079,-.34419965E-3,-.113E-5,0
ONEWEB-0340,2021-083W,2026-06-16T12:38:10.912416,13.18685756,.00019895,87.9171,335.5868,91.7374,268.3986,0,U,49206,999,22988,-.59131754E-4,-.1E-6,0
ONEWEB-0341,2021-083X,2026-06-16T10:58:38.049312,13.18685758,.00022166,87.9164,335.6036,102.1725,257.9656,0,U,49207,999,22989,-.10838942E-3,-.3E-6,0
ONEWEB-0342,2021-083Y,2026-06-16T14:14:21.562368,13.20771418,.00019254,87.9195,274.5551,103.1922,256.9427,0,U,49208,999,23670,.95269563E-4,.52E-6,0
ONEWEB-0343,2021-083Z,2026-06-16T13:00:02.421216,13.18686449,.00016015,87.9167,335.5855,105.0643,255.0666,0,U,49209,999,22995,-.94332939E-4,-.24E-6,0
ONEWEB-0344,2021-083AA,2026-06-16T10:25:18.215904,13.13471657,.00021345,87.8942,320.3904,103.2175,256.9193,0,U,49210,999,23079,.85661117E-4,.44E-6,0
ONEWEB-0345,2021-083AB,2026-06-16T12:02:49.070112,13.13471316,.00020592,87.8962,320.3578,103.1626,256.9733,0,U,49211,999,23081,.65448953E-3,.252E-5,0
ONEWEB-0346,2021-083AC,2026-06-16T11:05:55.102848,13.18686151,.00023174,87.9161,335.6016,80.6234,279.5160,0,U,49212,999,22988,.44810594E-4,.31E-6,0
ONEWEB-0348,2021-083AD,2026-06-16T13:59:48.760800,13.20770684,.00024697,87.9196,274.5610,96.6457,263.4957,0,U,49213,999,23673,-.47737E-7,.13E-6,0
ONEWEB-0350,2021-083AE,2026-06-16T10:36:40.397472,13.12943219,.00020966,87.8957,320.3741,99.6142,260.5223,0,U,49214,999,23083,-.68438671E-3,-.235E-5,0
ONEWEB-0351,2021-083AF,2026-06-16T13:49:54.351264,13.20770577,.00020051,87.9196,274.5610,125.9576,234.1743,0,U,49215,999,23669,.38560699E-4,.29E-6,0
ONEWEB-0352,2021-083AG,2026-06-16T09:58:30.654912,13.13470602,.00016299,87.8952,320.3862,109.4980,250.6325,0,U,49216,999,23092,.99326914E-3,.375E-5,0
ONEWEB-0354,2021-083AH,2026-06-16T12:39:48.779424,13.20773498,.00023738,87.9196,274.5696,100.3828,259.7573,0,U,49217,999,23672,.39737153E-4,.29E-6,0
ONEWEB-0355,2021-083AJ,2026-06-16T10:40:08.737248,13.13469981,.00018675,87.8949,320.3814,103.4684,256.6653,0,U,49218,999,23080,-.55175078E-3,-.189E-5,0
ONEWEB-0357,2021-083AK,2026-06-16T12:34:57.875808,13.20772706,.00019279,87.9194,274.5644,106.6898,253.4447,0,U,49219,999,23672,.3410613E-4,.27E-6,0
ONEWEB-0332,2021-090A,2026-06-16T14:37:56.825472,13.14501500,.00016892,87.8963,289.8240,101.1526,258.9794,0,U,49279,999,22750,-.28774946E-3,-.94E-6,0
ONEWEB-0347,2021-090B,2026-06-16T14:09:30.712320,13.20771524,.00017211,87.9195,274.5595,99.9341,260.1987,0,U,49280,999,23096,-.33470659E-4,-.1E-7,0
ONEWEB-0349,2021-090C,2026-06-16T13:06:29.116512,13.20772575,.00020187,87.9194,274.5688,101.3944,258.7416,0,U,49281,999,22974,.27398772E-3,.124E-5,0
ONEWEB-0353,2021-090D,2026-06-16T14:26:32.523648,13.14503436,.00016665,87.8965,289.8212,99.6297,260.5021,0,U,49282,999,22750,-.36656516E-3,-.123E-5,0
ONEWEB-0356,2021-090E,2026-06-16T13:04:02.964000,13.20773736,.00020728,87.9195,274.5624,77.5590,282.5775,0,U,49283,999,22974,.23921378E-3,.11E-5,0
ONEWEB-0358,2021-090F,2026-06-16T13:51:06.103872,13.20237343,.00021102,87.9198,274.5614,95.5715,264.5659,0,U,49284,999,23047,.13403361E-3,.67E-6,0
ONEWEB-0359,2021-090G,2026-06-16T13:42:49.567392,13.20807079,.00025521,87.9195,274.5571,89.4600,270.6826,0,U,49285,999,23045,-.16806877E-1,-.6819E-4,0
ONEWEB-0360,2021-090H,2026-06-16T13:28:16.569696,13.20777130,.00021269,87.9198,274.5653,102.6229,257.5142,0,U,49286,999,22976,-.26711463E-2,-.1073E-4,0
ONEWEB-0361,2021-090J,2026-06-16T13:01:37.595136,13.20771485,.00020915,87.9196,274.5673,98.1726,261.9644,0,U,49287,999,23021,.29456866E-3,.133E-5,0
ONEWEB-0362,2021-090K,2026-06-16T15:30:58.322304,13.19724567,.00019267,87.9168,305.0855,106.9382,253.1963,0,U,49288,999,22684,.16304323E-3,.78E-6,0
ONEWEB-0363,2021-090L,2026-06-16T13:23:26.457504,13.20770930,.00020711,87.9194,274.5646,91.2001,268.9369,0,U,49289,999,23022,.37932325E-3,.167E-5,0
ONEWEB-0364,2021-090M,2026-06-16T14:19:12.197280,13.20771619,.00019965,87.9192,274.5647,100.9279,259.2079,0,U,49290,999,23136,-.28450296E-4,.1E-7,0
