[
  {
    "name": "ONEWEB-0336",
    "noradId": "49202",
    "line1": "1 49202U 21083S   26167.49688615  .00000386  00000+0  10217-2 0  9999",
    "line2": "2 49202  87.8951 320.3651 0002240  93.1897 266.9489 13.13470196230826"
  },
  {
    "name": "ONEWEB-0337",
    "noradId": "49203",
    "line1": "1 49203U 21083T   26167.50690882  .00000163  00000+0  41097-3 0  9995",
    "line2": "2 49203  87.8951 320.3691 0002034  98.4824 261.6536 13.13469865230826"
  },
  {
    "name": "ONEWEB-0338",
    "noradId": "49204",
    "line1": "1 49204U 21083U   26167.58656587  .00000028  00000+0  36335-4 0  9998",
    "line2": "2 49204  87.9186 274.5684 0001679 103.7651 256.3670 13.20773939236736"
  },
  {
    "name": "ONEWEB-0339",
    "noradId": "49205",
    "line1": "1 49205U 21083V   26167.43932514 -.00000113  00000+0 -34420-3 0  9999",
    "line2": "2 49205  87.8952 320.3749 0001635 104.0861 256.0451 13.13470270230796"
  },
  {
    "name": "ONEWEB-0340",
    "noradId": "49206",
    "line1": "1 49206U 21083W   26167.52651519 -.00000010  00000+0 -59132-4 0  9997",
    "line2": "2 49206  87.9171 335.5868 0001989  91.7374 268.3986 13.18685756229883"
  },
  {
    "name": "ONEWEB-0341",
    "noradId": "49207",
    "line1": "1 49207U 21083X   26167.45738483 -.00000030  00000+0 -10839-3 0  9998",
    "line2": "2 49207  87.9164 335.6036 0002216 102.1725 257.9656 13.18685758229896"
  },
  {
    "name": "ONEWEB-0342",
    "noradId": "49208",
    "line1": "1 49208U 21083Y   26167.59330512  .00000052  00000+0  95270-4 0  9990",
    "line2": "2 49208  87.9195 274.5551 0001925 103.1922 256.9427 13.20771418236705"
  },
  {
    "name": "ONEWEB-0343",
    "noradId": "49209",
    "line1": "1 49209U 21083Z   26167.54169469 -.00000024  00000+0 -94333-4 0  9997",
    "line2": "2 49209  87.9167 335.5855 0001601 105.0643 255.0666 13.18686449229952"
  },
  {
    "name": "ONEWEB-0344",
    "noradId": "49210",
    "line1": "1 49210U 21083AA  26167.43423861  .00000044  00000+0  85661-4 0  9990",
    "line2": "2 49210  87.8942 320.3904 0002134 103.2175 256.9193 13.13471657230790"
  },
  {
    "name": "ONEWEB-0345",
    "noradId": "49211",
    "line1": "1 49211U 21083AB  26167.50195683  .00000252  00000+0  65449-3 0  9999",
    "line2": "2 49211  87.8962 320.3578 0002059 103.1626 256.9733 13.13471316230811"
  },
  {
    "name": "ONEWEB-0346",
    "noradId": "49212",
    "line1": "1 49212U 21083AC  26167.46244332  .00000031  00000+0  44811-4 0  9997",
    "line2": "2 49212  87.9161 335.6016 0002317  80.6234 279.5160 13.18686151229881"
  },
  {
    "name": "ONEWEB-0348",
    "noradId": "49213",
    "line1": "1 49213U 21083AD  26167.58320325  .00000013  00000+0 -47737-7 0  9992",
    "line2": "2 49213  87.9196 274.5610 0002469  96.6457 263.4957 13.20770684236739"
  },
  {
    "name": "ONEWEB-0350",
    "noradId": "49214",
    "line1": "1 49214U 21083AE  26167.44213423 -.00000235  00000+0 -68439-3 0  9993",
    "line2": "2 49214  87.8957 320.3741 0002096  99.6142 260.5223 13.12943219230835"
  },
  {
    "name": "ONEWEB-0351",
    "noradId": "49215",
    "line1": "1 49215U 21083AF  26167.57632351  .00000029  00000+0  38561-4 0  9996",
    "line2": "2 49215  87.9196 274.5610 0002005 125.9576 234.1743 13.20770577236699"
  },
  {
    "name": "ONEWEB-0352",
    "noradId": "49216",
    "line1": "1 49216U 21083AG  26167.41563258  .00000375  00000+0  99327-3 0  9999",
    "line2": "2 49216  87.8952 320.3862 0001629 109.4980 250.6325 13.13470602230922"
  },
  {
    "name": "ONEWEB-0354",
    "noradId": "49217",
    "line1": "1 49217U 21083AH  26167.52764791  .00000029  00000+0  39737-4 0  9993",
    "line2": "2 49217  87.9196 274.5696 0002373 100.3828 259.7573 13.20773498236723"
  },
  {
    "name": "ONEWEB-0355",
    "noradId": "49218",
    "line1": "1 49218U 21083AJ  26167.44454557 -.00000189  00000+0 -55175-3 0  9993",
    "line2": "2 49218  87.8949 320.3814 0001867 103.4684 256.6653 13.13469981230801"
  },
  {
    "name": "ONEWEB-0357",
    "noradId": "49219",
    "line1": "1 49219U 21083AK  26167.52428097  .00000027  00000+0  34106-4 0  9994",
    "line2": "2 49219  87.9194 274.5644 0001927 106.6898 253.4447 13.20772706236728"
  },
  {
    "name": "ONEWEB-0332",
    "noradId": "49279",
    "line1": "1 49279U 21090A   26167.60968548 -.00000094  00000+0 -28775-3 0  9997",
    "line2": "2 49279  87.8963 289.8240 0001689 101.1526 258.9794 13.14501500227507"
  },
  {
    "name": "ONEWEB-0347",
    "noradId": "49280",
    "line1": "1 49280U 21090B   26167.58993880 -.00000001  00000+0 -33471-4 0  9991",
    "line2": "2 49280  87.9195 274.5595 0001721  99.9341 260.1987 13.20771524230962"
  },
  {
    "name": "ONEWEB-0349",
    "noradId": "49281",
    "line1": "1 49281U 21090C   26167.54617033  .00000124  00000+0  27399-3 0  9996",
    "line2": "2 49281  87.9194 274.5688 0002018 101.3944 258.7416 13.20772575229743"
  },
  {
    "name": "ONEWEB-0353",
    "noradId": "49282",
    "line1": "1 49282U 21090D   26167.60176532 -.00000123  00000+0 -36657-3 0  9996",
    "line2": "2 49282  87.8965 289.8212 0001666  99.6297 260.5021 13.14503436227505"
  },
  {
    "name": "ONEWEB-0356",
    "noradId": "49283",
    "line1": "1 49283U 21090E   26167.54447875  .00000110  00000+0  23921-3 0  9995",
    "line2": "2 49283  87.9195 274.5624 0002072  77.5590 282.5775 13.20773736229740"
  },
  {
    "name": "ONEWEB-0358",
    "noradId": "49284",
    "line1": "1 49284U 21090F   26167.57715398  .00000067  00000+0  13403-3 0  9992",
    "line2": "2 49284  87.9198 274.5614 0002110  95.5715 264.5659 13.20237343230477"
  },
  {
    "name": "ONEWEB-0359",
    "noradId": "49285",
    "line1": "1 49285U 21090G   26167.57140703 -.00006819  00000+0 -16807-1 0  9997",
    "line2": "2 49285  87.9195 274.5571 0002552  89.4600 270.6826 13.20807079230453"
  },
  {
    "name": "ONEWEB-0360",
    "noradId": "49286",
    "line1": "1 49286U 21090H   26167.56130289 -.00001073  00000+0 -26711-2 0  9998",
    "line2": "2 49286  87.9198 274.5653 0002126 102.6229 257.5142 13.20777130229761"
  },
  {
    "name": "ONEWEB-0361",
    "noradId": "49287",
    "line1": "1 49287U 21090J   26167.54279624  .00000133  00000+0  29457-3 0  9999",
    "line2": "2 49287  87.9196 274.5673 0002091  98.1726 261.9644 13.20771485230219"
  },
  {
    "name": "ONEWEB-0362",
    "noradId": "49288",
    "line1": "1 49288U 21090K   26167.64650836  .00000078  00000+0  16304-3 0  9994",
    "line2": "2 49288  87.9168 305.0855 0001926 106.9382 253.1963 13.19724567226841"
  },
  {
    "name": "ONEWEB-0363",
    "noradId": "49289",
    "line1": "1 49289U 21090L   26167.55794511  .00000167  00000+0  37932-3 0  9993",
    "line2": "2 49289  87.9194 274.5646 0002071  91.2001 268.9369 13.20770930230223"
  },
  {
    "name": "ONEWEB-0364",
    "noradId": "49290",
    "line1": "1 49290U 21090M   26167.59666895  .00000001  00000+0 -28450-4 0  9996",
    "line2": "2 49290  87.9192 274.5647 0001996 100.9279 259.2079 13.20771619231366"
  }
]